{
  "links" : {
    "next" : "https://api.nasa.gov/neo/rest/v1/feed?start_date=2012-05-23&end_date=2012-05-23&detailed=true&api_key=t0TVs3DtDT2H8Oy2Zy8m2eVrNsAVKAexjcZXUckd",
    "prev" : "https://api.nasa.gov/neo/rest/v1/feed?start_date=2012-05-21&end_date=2012-05-21&detailed=true&api_key=t0TVs3DtDT2H8Oy2Zy8m2eVrNsAVKAexjcZXUckd",
    "self" : "https://api.nasa.gov/neo/rest/v1/feed?start_date=2012-05-22&end_date=2012-05-22&detailed=true&api_key=t0TVs3DtDT2H8Oy2Zy8m2eVrNsAVKAexjcZXUckd"
  },
  "element_count" : 7,
  "near_earth_objects" : {
    "2012-05-22" : [ {
      "links" : {
        "self" : "https://api.nasa.gov/neo/rest/v1/neo/3604181?api_key=t0TVs3DtDT2H8Oy2Zy8m2eVrNsAVKAexjcZXUckd"
      },
      "neo_reference_id" : "3604181",
      "name" : "(2012 JV11)",
      "nasa_jpl_url" : "http://ssd.jpl.nasa.gov/sbdb.cgi?sstr=3604181",
      "absolute_magnitude_h" : 24.0,
      "estimated_diameter" : {
        "kilometers" : {
          "estimated_diameter_min" : 0.0421264611,
          "estimated_diameter_max" : 0.0941976306
        },
        "meters" : {
          "estimated_diameter_min" : 42.1264610556,
          "estimated_diameter_max" : 94.1976305719
        },
        "miles" : {
          "estimated_diameter_min" : 0.0261761612,
          "estimated_diameter_max" : 0.0585316759
        },
        "feet" : {
          "estimated_diameter_min" : 138.2101784897,
          "estimated_diameter_max" : 309.0473542854
        }
      },
      "is_potentially_hazardous_asteroid" : false,
      "close_approach_data" : [ {
        "close_approach_date" : "2012-05-22",
        "epoch_date_close_approach" : 1337670000000,
        "relative_velocity" : {
          "kilometers_per_second" : "19.4857388905",
          "kilometers_per_hour" : "70148.6600057748",
          "miles_per_hour" : "43587.6493241438"
        },
        "miss_distance" : {
          "astronomical" : "0.0171270163",
          "lunar" : "6.6624093056",
          "kilometers" : "2562165.25",
          "miles" : "1592055.625"
        },
        "orbiting_body" : "Earth"
      } ],
      "orbital_data" : {
        "orbit_id" : "9",
        "orbit_determination_date" : "2017-04-06 08:49:49",
        "orbit_uncertainty" : "8",
        "minimum_orbit_intersection" : ".00928003",
        "jupiter_tisserand_invariant" : "3.517",
        "epoch_osculation" : "2456063.5",
        "eccentricity" : ".6803952976399843",
        "semi_major_axis" : "1.994162224578274",
        "inclination" : ".6712888631496288",
        "ascending_node_longitude" : "355.7536475471837",
        "orbital_period" : "1028.582555691314",
        "perihelion_distance" : ".6373436242439261",
        "perihelion_argument" : "329.71642157",
        "aphelion_distance" : "3.350980824912622",
        "perihelion_time" : "2456117.294864280532",
        "mean_anomaly" : "341.1720011837305",
        "mean_motion" : ".3499962137293323",
        "equinox" : "J2000"
      }
    }, {
      "links" : {
        "self" : "https://api.nasa.gov/neo/rest/v1/neo/3605165?api_key=t0TVs3DtDT2H8Oy2Zy8m2eVrNsAVKAexjcZXUckd"
      },
      "neo_reference_id" : "3605165",
      "name" : "(2012 KA42)",
      "nasa_jpl_url" : "http://ssd.jpl.nasa.gov/sbdb.cgi?sstr=3605165",
      "absolute_magnitude_h" : 27.3,
      "estimated_diameter" : {
        "kilometers" : {
          "estimated_diameter_min" : 0.0092162655,
          "estimated_diameter_max" : 0.0206081961
        },
        "meters" : {
          "estimated_diameter_min" : 9.216265485,
          "estimated_diameter_max" : 20.6081961232
        },
        "miles" : {
          "estimated_diameter_min" : 0.0057267201,
          "estimated_diameter_max" : 0.0128053354
        },
        "feet" : {
          "estimated_diameter_min" : 30.2370924539,
          "estimated_diameter_max" : 67.6121941689
        }
      },
      "is_potentially_hazardous_asteroid" : false,
      "close_approach_data" : [ {
        "close_approach_date" : "2012-05-22",
        "epoch_date_close_approach" : 1337670000000,
        "relative_velocity" : {
          "kilometers_per_second" : "6.0034212156",
          "kilometers_per_hour" : "21612.3163762099",
          "miles_per_hour" : "13429.0529172066"
        },
        "miss_distance" : {
          "astronomical" : "0.0177298441",
          "lunar" : "6.8969097137",
          "kilometers" : "2652347",
          "miles" : "1648092"
        },
        "orbiting_body" : "Earth"
      } ],
      "orbital_data" : {
        "orbit_id" : "4",
        "orbit_determination_date" : "2017-04-06 08:49:40",
        "orbit_uncertainty" : "9",
        "minimum_orbit_intersection" : ".0147965",
        "jupiter_tisserand_invariant" : "4.947",
        "epoch_osculation" : "2456074.5",
        "eccentricity" : ".2508438669684372",
        "semi_major_axis" : "1.306653461494167",
        "inclination" : "6.162232748438127",
        "ascending_node_longitude" : "245.9962958681547",
        "orbital_period" : "545.5556549634409",
        "perihelion_distance" : ".978887454425276",
        "perihelion_argument" : "316.3482079454744",
        "aphelion_distance" : "1.634419468563058",
        "perihelion_time" : "2456034.940511741148",
        "mean_anomaly" : "26.10442334089833",
        "mean_motion" : ".6598776801683497",
        "equinox" : "J2000"
      }
    }, {
      "links" : {
        "self" : "https://api.nasa.gov/neo/rest/v1/neo/3120890?api_key=t0TVs3DtDT2H8Oy2Zy8m2eVrNsAVKAexjcZXUckd"
      },
      "neo_reference_id" : "3120890",
      "name" : "(2002 GK8)",
      "nasa_jpl_url" : "http://ssd.jpl.nasa.gov/sbdb.cgi?sstr=3120890",
      "absolute_magnitude_h" : 19.6,
      "estimated_diameter" : {
        "kilometers" : {
          "estimated_diameter_min" : 0.3195618867,
          "estimated_diameter_max" : 0.7145621017
        },
        "meters" : {
          "estimated_diameter_min" : 319.5618867213,
          "estimated_diameter_max" : 714.5621017269
        },
        "miles" : {
          "estimated_diameter_min" : 0.1985664891,
          "estimated_diameter_max" : 0.4440081677
        },
        "feet" : {
          "estimated_diameter_min" : 1048.4314204307,
          "estimated_diameter_max" : 2344.3639258298
        }
      },
      "is_potentially_hazardous_asteroid" : false,
      "close_approach_data" : [ {
        "close_approach_date" : "2012-05-22",
        "epoch_date_close_approach" : 1337670000000,
        "relative_velocity" : {
          "kilometers_per_second" : "19.2439547931",
          "kilometers_per_hour" : "69278.2372552439",
          "miles_per_hour" : "43046.8024767375"
        },
        "miss_distance" : {
          "astronomical" : "0.4580807883",
          "lunar" : "178.1934356689",
          "kilometers" : "68527912",
          "miles" : "42581272"
        },
        "orbiting_body" : "Earth"
      } ],
      "orbital_data" : {
        "orbit_id" : "35",
        "orbit_determination_date" : "2017-05-03 06:18:20",
        "orbit_uncertainty" : "0",
        "minimum_orbit_intersection" : ".406718",
        "jupiter_tisserand_invariant" : "3.673",
        "epoch_osculation" : "2457800.5",
        "eccentricity" : ".4012957792921322",
        "semi_major_axis" : "1.841464897268924",
        "inclination" : "38.9971698204352",
        "ascending_node_longitude" : "47.82086755153809",
        "orbital_period" : "912.7326657090537",
        "perihelion_distance" : "1.102492806280285",
        "perihelion_argument" : "266.7702286041829",
        "aphelion_distance" : "2.580436988257564",
        "perihelion_time" : "2457989.087724045779",
        "mean_anomaly" : "285.6172336028545",
        "mean_motion" : ".3944199802691789",
        "equinox" : "J2000"
      }
    } ]
  }
}